OBJECT_NAME,OBJECT_ID,EPOCH,MEAN_MOTION,ECCENTRICITY,INCLINATION,RA_OF_ASC_NODE,ARG_OF_PERICENTER,MEAN_ANOMALY,EPHEMERIS_TYPE,CLASSIFICATION_TYPE,NORAD_CAT_ID,ELEMENT_SET_NO,REV_AT_EPOCH,BSTAR,MEAN_MOTION_DOT,MEAN_MOTION_DDOT
STARLINK-32232,2024-144G,2026-06-28T09:54:54.733536,15.34401509,.00014786,53.1617,62.6782,100.2872,259.8297,0,U,60431,999,10626,.18972825E-3,.6039E-4,0
STARLINK-32246,2024-144H,2026-06-27T22:37:07.101984,15.34399051,.000137,53.1616,64.7176,115.0834,245.0311,0,U,60432,999,10619,.24972E-5,-.292E-5,0
STARLINK-32183,2024-144J,2026-06-28T09:42:46.616544,15.34399988,.00008053,53.1608,62.6257,98.1320,261.9774,0,U,60433,999,10626,-.24655067E-4,-.1209E-4,0
STARLINK-32233,2024-144K,2026-06-28T09:26:57.231744,15.34395927,.00011704,53.1607,61.1408,105.3690,254.7442,0,U,60434,999,10628,.50647745E-4,.1335E-4,0
STARLINK-32222,2024-144L,2026-06-28T15:23:58.092576,15.34383363,.00014555,53.1607,59.8414,94.7774,265.3394,0,U,60435,999,10632,.31471244E-4,.687E-5,0
STARLINK-32229,2024-144M,2026-06-28T08:59:42.006336,15.34388920,.00012165,53.1610,61.0152,76.4686,283.6452,0,U,60436,999,10628,-.16967891E-4,-.949E-5,0
STARLINK-32241,2024-144N,2026-06-28T09:36:02.239488,15.34400321,.00011368,53.1607,61.1770,95.9784,264.1348,0,U,60437,999,10628,-.21753672E-4,-.1111E-4,0
STARLINK-32240,2024-144P,2026-06-28T08:56:39.778368,15.34389598,.00010132,53.1615,61.0081,99.7180,260.3937,0,U,60438,999,10632,-.4852879E-5,-.54E-5,0
STARLINK-32231,2024-144Q,2026-06-28T09:23:56.052672,15.34387156,.00011022,53.1597,61.1261,90.2473,269.8656,0,U,60439,999,10538,-.2098157E-5,-.447E-5,0
STARLINK-32195,2024-144R,2026-06-28T15:05:47.151744,15.34377157,.00011784,53.1609,59.7656,111.8358,248.2770,0,U,60440,999,10632,.9287097E-4,.2761E-4,0
STARLINK-32177,2024-144S,2026-06-27T23:15:42.436224,15.34395790,.00012333,53.1619,62.7562,78.3803,281.7338,0,U,60441,999,10622,-.23934843E-4,-.1185E-4,0
STARLINK-32252,2024-144T,2026-06-28T08:53:37.460544,15.34395377,.00011815,53.1602,60.9964,88.7401,271.3737,0,U,60442,999,10632,.6708656E-4,.1891E-4,0
STARLINK-32237,2024-144U,2026-06-28T09:33:01.456992,15.34384620,.00009945,53.1595,61.1626,99.9842,260.1273,0,U,60443,999,10628,.67989737E-4,.1921E-4,0
STARLINK-32249,2024-144V,2026-06-28T09:11:48.414336,15.34396729,.00010391,53.1601,61.0722,91.8054,268.3067,0,U,60444,999,10632,-.24470354E-4,-.1203E-4,0
STARLINK-32228,2024-144W,2026-06-27T23:03:35.182368,15.34388407,.0001443,53.1614,62.7027,101.5866,258.5299,0,U,60445,999,10626,-.55691047E-4,-.2257E-4,0
STARLINK-32247,2024-144X,2026-06-27T22:31:53.266080,15.30183444,.0001369,53.1618,54.6081,100.4527,259.6628,0,U,60446,999,10637,-.36578E-5,-.467E-5,0
STARLINK-32101,2024-144Y,2026-06-27T23:09:38.165184,15.34403324,.00014032,53.1622,62.7311,89.7729,270.3435,0,U,60447,999,10622,.1640087E-4,.178E-5,0
LEGION 3,2024-146A,2026-06-28T14:18:21.217824,15.16034549,.00087065,45.0022,329.3655,235.4493,124.5564,0,U,60452,999,10375,.20053361E-3,.3661E-4,0
LEGION 4,2024-146B,2026-06-28T12:47:53.880000,15.16117449,.00124605,45.0022,61.6118,10.5518,349.5620,0,U,60453,999,10259,.22165293E-3,.4087E-4,0
EOS-08,2024-147A,2026-06-28T12:07:30.405792,15.49710828,.00043031,37.3820,345.6280,354.3709,5.7008,0,U,60454,999,10483,.6627768E-3,.37902E-3,0
YAOGAN-43 01A,2024-148A,2026-06-28T03:42:53.842176,15.35987096,.00062222,35.0050,68.3241,308.6523,51.3639,0,U,60458,999,10413,.46159389E-3,.16619E-3,0
YAOGAN-43 01B,2024-148B,2026-06-28T09:17:34.993248,15.36085064,.00092555,34.9935,62.2171,310.4226,49.5685,0,U,60459,999,10415,.36390264E-3,.13139E-3,0
YAOGAN-43 01C,2024-148C,2026-06-28T05:31:27.088896,15.22884599,.00068427,34.9995,93.0462,294.2824,65.7175,0,U,60460,999,10382,.34311993E-3,.8214E-4,0
YAOGAN-43 01D,2024-148D,2026-06-28T10:01:49.738656,15.29997909,.00032368,35.0062,77.1015,283.6818,76.3539,0,U,60461,999,10400,.23603997E-3,.6999E-4,0
YAOGAN-43 01E,2024-148E,2026-06-28T05:27:03.179232,15.22940128,.00063802,34.9931,90.7423,311.7002,48.3167,0,U,60462,999,10384,.4573086E-3,.10982E-3,0
YAOGAN-43 01F,2024-148F,2026-06-28T03:01:36.814656,15.32711006,.00086372,34.9919,78.4328,312.7400,47.2590,0,U,60463,999,10396,.45727113E-3,.14833E-3,0
YAOGAN-43 01G,2024-148G,2026-06-28T10:16:43.353984,15.29958704,.00071016,35.0037,77.3931,251.9078,108.0865,0,U,60464,999,10400,.23383101E-3,.6929E-4,0
YAOGAN-43 01H,2024-148H,2026-06-28T10:32:46.533408,15.27908079,.00082079,34.9908,85.8737,291.1325,68.8514,0,U,60465,999,10391,.24604357E-3,.6847E-4,0
YAOGAN-43 01J,2024-148J,2026-06-28T02:09:19.615968,15.36622680,.00082187,34.9923,63.7019,350.8616,9.1952,0,U,60466,999,10411,.40071753E-3,.14725E-3,0
TRANSPORTER-11 OBJECT A,2024-149A,2026-06-28T04:26:12.608160,15.33081896,.00038608,97.3737,259.0808,159.6730,200.4667,0,U,60468,999,10374,.27430705E-3,.8691E-4,0
WARATAH SEED-1,2024-149B,2026-06-28T04:27:06.615936,15.36214694,.00024104,97.3694,259.7714,153.4391,206.6977,0,U,60469,999,10380,.37876057E-3,.13296E-3,0
PHISAT 2,2024-149C,2026-06-28T11:37:10.070976,15.31208466,.00021165,97.3761,258.6380,152.4808,207.6546,0,U,60470,999,10372,.22331694E-3,.6655E-4,0
LEMUR-2-TOMATOKECHUP,2024-149D,2026-06-28T13:43:46.657920,15.36261692,.00023896,97.3804,261.6486,154.0618,206.0746,0,U,60471,999,10391,.30098927E-3,.10561E-3,0
CONNECTA IOT-1,2024-149E,2026-06-28T10:59:29.252544,15.23623438,.0001249,97.3763,255.5590,180.7879,179.3356,0,U,60472,999,10351,.16039992E-3,.3771E-4,0
LOPEN,2024-149F,2026-06-28T12:03:46.525248,15.40005243,.00017109,97.3787,262.9604,163.5023,196.6279,0,U,60473,999,10400,.36783843E-3,.14605E-3,0
ROCK,2024-149G,2026-06-28T11:44:30.581376,15.39997173,.00020755,97.3782,262.9621,164.8415,195.2893,0,U,60474,999,10400,.35824376E-3,.14217E-3,0
CONNECTA IOT-3,2024-149H,2026-06-28T11:30:08.317152,15.23636242,.00023237,97.3737,255.3297,191.1476,168.9710,0,U,60475,999,10352,.17042142E-3,.4013E-4,0
QUBE,2024-149J,2026-06-28T05:33:03.980448,15.47718050,.00026097,97.3783,265.8804,166.3121,193.8200,0,U,60476,999,10417,.49144584E-3,.25389E-3,0
WREN-1,2024-149L,2026-06-28T11:49:06.353760,15.41990146,.00042087,97.3773,263.7259,203.2452,156.8605,0,U,60478,999,10406,.44619506E-3,.18954E-3,0
TOMORROW-S1,2024-149M,2026-06-28T11:53:37.044096,15.32873747,.00026956,97.3757,259.9327,173.3119,186.8160,0,U,60479,999,10382,.23024887E-3,.7233E-4,0
FLOCK 4BE-18,2024-149N,2026-06-28T04:15:36.218592,15.42198447,.00038907,97.3733,263.0234,194.5577,165.5558,0,U,60480,999,10400,.37027937E-3,.15817E-3,0
FLOCK 4BE-7,2024-149P,2026-06-28T04:41:44.958336,15.40751112,.00030605,97.3764,262.3608,194.3291,165.7869,0,U,60481,999,10394,.50098906E-3,.20435E-3,0
TOMORROW-S2,2024-149T,2026-06-28T11:03:12.097152,15.32910412,.00022326,97.3824,260.3973,196.5870,163.5300,0,U,60485,999,10381,.23540758E-3,.7405E-4,0
FLOCK 4BE-36,2024-149U,2026-06-28T11:12:39.468672,15.43050723,.00033634,97.3750,264.0324,202.3150,157.7952,0,U,60486,999,10409,.32234187E-3,.14153E-3,0
FLOCK 4BE-25,2024-149V,2026-06-28T12:45:22.094208,15.39120394,.00024376,97.3805,262.7600,181.6262,178.4976,0,U,60487,999,10398,.33330404E-3,.12845E-3,0
FLOCK 4BE-31,2024-149W,2026-06-28T11:42:22.450176,15.44522236,.00025665,97.3805,264.9435,194.5449,165.5726,0,U,60488,999,10412,.41315025E-3,.191E-3,0
FLOCK 4BE-20,2024-149X,2026-06-28T04:12:40.031712,15.38339947,.00035059,97.3699,261.2520,202.2079,157.9015,0,U,60489,999,10390,.40583283E-3,.1527E-3,0
FLOCK 4BE-23,2024-149Y,2026-06-28T11:51:03.932928,15.37948921,.00030698,97.3788,261.9551,205.3572,154.7523,0,U,60490,999,10393,.35698979E-3,.13249E-3,0
FLOCK 4BE-17,2024-149AA,2026-06-28T04:51:32.016096,15.40092193,.00031176,97.3779,262.6599,192.1611,167.9560,0,U,60492,999,10395,.35535568E-3,.14147E-3,0
NUSAT-50 (NANCY ROMAN),2024-149AB,2026-06-28T14:44:20.961600,15.30049191,.00043571,97.3796,260.7910,142.5031,217.6514,0,U,60493,999,10387,.29955272E-3,.864E-4,0
FLOCK 4BE-22,2024-149AC,2026-06-28T11:58:04.357056,15.41496279,.00033497,97.3739,263.1684,204.3936,155.7153,0,U,60494,999,10404,.35414306E-3,.14771E-3,0
FLOCK 4BE-34,2024-149AD,2026-06-28T04:35:31.621344,15.41469955,.00031488,97.3787,263.6874,213.3753,146.7296,0,U,60495,999,10402,.36420609E-3,.1518E-3,0
TYCHE,2024-149AE,2026-06-28T13:05:45.218400,15.25844448,.00018187,97.3759,257.2102,213.5283,146.5841,0,U,60496,999,10363,.16292561E-3,.4097E-4,0
FLOCK 4BE-32,2024-149AF,2026-06-28T11:26:52.441440,15.42527334,.00034339,97.3727,263.5279,208.7935,151.3123,0,U,60497,999,10407,.39716831E-3,.17161E-3,0
NUSAT-48 (HENRIETTA LEAVITT),2024-149AG,2026-06-28T11:19:34.085856,15.30048812,.0003049,97.3927,260.9129,217.6266,142.4762,0,U,60498,999,10386,.29835908E-3,.8604E-4,0
FLOCK 4BE-30,2024-149AH,2026-06-28T11:56:23.568000,15.59502834,.00055517,97.3773,265.4188,222.3993,137.6835,0,U,60499,999,10353,.18602218E-2,.149916E-2,0
NUSAT-49 (KLARA DAN VON NEUMANN),2024-149AJ,2026-06-28T10:47:08.313792,15.30124678,.00008669,97.3786,260.6595,224.6837,135.4334,0,U,60500,999,10385,.29828844E-3,.8621E-4,0
FLOCK 4BE-11,2024-149AK,2026-06-28T11:10:30.851904,15.43339390,.00035544,97.3706,263.7576,208.7838,151.3214,0,U,60501,999,10409,.35912084E-3,.15935E-3,0
YAM-7,2024-149AN,2026-06-28T11:43:26.793984,15.31968207,.00020816,97.3789,259.6928,234.9080,125.1967,0,U,60504,999,10378,.2309217E-3,.705E-4,0
FLOCK 4BE-24,2024-149AP,2026-06-28T04:36:31.385088,15.43470383,.00035929,97.3723,263.7409,224.4501,135.6459,0,U,60505,999,10406,.42685992E-3,.19049E-3,0
LUR-1,2024-149AQ,2026-06-28T11:47:45.633696,15.30246831,.0002584,97.3742,258.2381,256.2567,103.8387,0,U,60506,999,10370,.22929048E-3,.6634E-4,0
TANAGER-1,2024-149AR,2026-06-28T05:40:06.460032,15.44765161,.0002686,97.2380,273.4602,255.5801,104.5150,0,U,60507,999,10474,.9771242E-5,.371E-5,0
EAGLEEYE,2024-149AS,2026-06-28T05:55:54.905664,15.73017727,.00049921,97.3728,273.2104,213.3515,146.7435,0,U,60508,999,10467,.73297837E-3,.100737E-2,0
FLOCK 4BE-29,2024-149AT,2026-06-28T12:27:48.646656,15.44501852,.00020372,97.3819,265.5646,222.8505,137.2585,0,U,60509,999,10416,.35973589E-3,.16602E-3,0
